{
  "type": "FeatureCollection",
  "features": [
    {
      "type": "Feature",
      "properties": {
        "norad_id": 36379,
        "name": "COSMOS 2251 DEB",
        "group": "cosmos-2251-debris",
        "lat": 19.02664185668944,
        "lon": 114.32086388914684,
        "alt_km": 772.3484001720426,
        "timestamp": "2025-12-16T10:53:45.868324+00:00",
        "meta_object_name": "COSMOS 2251 DEB",
        "meta_object_id": "1993-036AZG",
        "meta_epoch": "2025-12-14T15:32:01.694112",
        "meta_mean_motion": 14.36082107,
        "meta_eccentricity": 0.00446626,
        "meta_inclination": 74.0126,
        "meta_ra_of_asc_node": 303.3155,
        "meta_arg_of_pericenter": 71.6898,
        "meta_mean_anomaly": 110.8401,
        "meta_ephemeris_type": 0,
        "meta_classification_type": "U",
        "meta_norad_cat_id": 36379,
        "meta_element_set_no": 999,
        "meta_rev_at_epoch": 64855,
        "meta_bstar": 0.00036106719,
        "meta_mean_motion_dot": 1.037e-05,
        "meta_mean_motion_ddot": 0,
        "tle_line1": "1 36379U 93036AZG 25348.64724183  .00001037  00000+0  36107-3 0  9996",
        "tle_line2": "2 36379  74.0126 303.3155 0044662  71.6898 110.8401 14.36082107648556"
      },
      "geometry": {
        "type": "Point",
        "coordinates": [
          114.32086388914684,
          19.02664185668944
        ]
      }
    },
    {
      "type": "Feature",
      "properties": {
        "norad_id": 36385,
        "name": "COSMOS 2251 DEB",
        "group": "cosmos-2251-debris",
        "lat": -53.89833574655596,
        "lon": -9.502984312382846,
        "alt_km": 646.9401924463773,
        "timestamp": "2025-12-16T10:53:45.868334+00:00",
        "meta_object_name": "COSMOS 2251 DEB",
        "meta_object_id": "1993-036AZN",
        "meta_epoch": "2025-12-14T12:09:34.420896",
        "meta_mean_motion": 14.72609971,
        "meta_eccentricity": 0.0141345,
        "meta_inclination": 73.9693,
        "meta_ra_of_asc_node": 151.0837,
        "meta_arg_of_pericenter": 325.0853,
        "meta_mean_anomaly": 34.1107,
        "meta_ephemeris_type": 0,
        "meta_classification_type": "U",
        "meta_norad_cat_id": 36385,
        "meta_element_set_no": 999,
        "meta_rev_at_epoch": 85128,
        "meta_bstar": 0.001300457,
        "meta_mean_motion_dot": 9.676e-05,
        "meta_mean_motion_ddot": 0,
        "tle_line1": "1 36385U 93036AZN 25348.50664839  .00009676  00000+0  13005-2 0  9997",
        "tle_line2": "2 36385  73.9693 151.0837 0141345 325.0853  34.1107 14.72609971851289"
      },
      "geometry": {
        "type": "Point",
        "coordinates": [
          -9.502984312382846,
          -53.89833574655596
        ]
      }
    },
    {
      "type": "Feature",
      "properties": {
        "norad_id": 36420,
        "name": "COSMOS 2251 DEB",
        "group": "cosmos-2251-debris",
        "lat": 47.34937048032309,
        "lon": -73.24480054791239,
        "alt_km": 756.5866674030931,
        "timestamp": "2025-12-16T10:53:45.868345+00:00",
        "meta_object_name": "COSMOS 2251 DEB",
        "meta_object_id": "1993-036AZT",
        "meta_epoch": "2025-12-15T11:49:33.237120",
        "meta_mean_motion": 14.36903496,
        "meta_eccentricity": 0.00182639,
        "meta_inclination": 74.0376,
        "meta_ra_of_asc_node": 270.4195,
        "meta_arg_of_pericenter": 357.521,
        "meta_mean_anomaly": 121.8451,
        "meta_ephemeris_type": 0,
        "meta_classification_type": "U",
        "meta_norad_cat_id": 36420,
        "meta_element_set_no": 999,
        "meta_rev_at_epoch": 85076,
        "meta_bstar": 0.00015513934,
        "meta_mean_motion_dot": 4.34e-06,
        "meta_mean_motion_ddot": 0,
        "tle_line1": "1 36420U 93036AZT 25349.49274580  .00000434  00000+0  15514-3 0  9997",
        "tle_line2": "2 36420  74.0376 270.4195 0018263 357.5210 121.8451 14.36903496850768"
      },
      "geometry": {
        "type": "Point",
        "coordinates": [
          -73.24480054791239,
          47.34937048032309
        ]
      }
    },
    {
      "type": "Feature",
      "properties": {
        "norad_id": 36430,
        "name": "COSMOS 2251 DEB",
        "group": "cosmos-2251-debris",
        "lat": -47.674291986533156,
        "lon": 83.42997709947778,
        "alt_km": 768.7254395661303,
        "timestamp": "2025-12-16T10:53:45.868356+00:00",
        "meta_object_name": "COSMOS 2251 DEB",
        "meta_object_id": "1993-036BAD",
        "meta_epoch": "2025-12-15T01:29:56.245920",
        "meta_mean_motion": 14.27797993,
        "meta_eccentricity": 0.00974903,
        "meta_inclination": 74.0045,
        "meta_ra_of_asc_node": 104.313,
        "meta_arg_of_pericenter": 253.9195,
        "meta_mean_anomaly": 105.1202,
        "meta_ephemeris_type": 0,
        "meta_classification_type": "U",
        "meta_norad_cat_id": 36430,
        "meta_element_set_no": 999,
        "meta_rev_at_epoch": 64590,
        "meta_bstar": 0.00050435869,
        "meta_mean_motion_dot": 1.285e-05,
        "meta_mean_motion_ddot": 0,
        "tle_line1": "1 36430U 93036BAD 25349.06245655  .00001285  00000+0  50436-3 0  9999",
        "tle_line2": "2 36430  74.0045 104.3130 0097490 253.9195 105.1202 14.27797993645906"
      },
      "geometry": {
        "type": "Point",
        "coordinates": [
          83.42997709947778,
          -47.674291986533156
        ]
      }
    },
    {
      "type": "Feature",
      "properties": {
        "norad_id": 36437,
        "name": "COSMOS 2251 DEB",
        "group": "cosmos-2251-debris",
        "lat": 11.676714166045844,
        "lon": -156.66379675042853,
        "alt_km": 659.6870110314294,
        "timestamp": "2025-12-16T10:53:45.868366+00:00",
        "meta_object_name": "COSMOS 2251 DEB",
        "meta_object_id": "1993-036BAL",
        "meta_epoch": "2025-12-15T09:38:46.294080",
        "meta_mean_motion": 14.70743739,
        "meta_eccentricity": 0.00232585,
        "meta_inclination": 73.9431,
        "meta_ra_of_asc_node": 28.8015,
        "meta_arg_of_pericenter": 260.2443,
        "meta_mean_anomaly": 99.6101,
        "meta_ephemeris_type": 0,
        "meta_classification_type": "U",
        "meta_norad_cat_id": 36437,
        "meta_element_set_no": 999,
        "meta_rev_at_epoch": 66090,
        "meta_bstar": 0.00092905041,
        "meta_mean_motion_dot": 5.662e-05,
        "meta_mean_motion_ddot": 0,
        "tle_line1": "1 36437U 93036BAL 25349.40192470  .00005662  00000+0  92905-3 0  9990",
        "tle_line2": "2 36437  73.9431  28.8015 0023258 260.2443  99.6101 14.70743739660909"
      },
      "geometry": {
        "type": "Point",
        "coordinates": [
          -156.66379675042853,
          11.676714166045844
        ]
      }
    },
    {
      "type": "Feature",
      "properties": {
        "norad_id": 36439,
        "name": "COSMOS 2251 DEB",
        "group": "cosmos-2251-debris",
        "lat": -63.912693274769104,
        "lon": -113.25082113543834,
        "alt_km": 1199.125428375688,
        "timestamp": "2025-12-16T10:53:45.868376+00:00",
        "meta_object_name": "COSMOS 2251 DEB",
        "meta_object_id": "1993-036BAN",
        "meta_epoch": "2025-12-14T09:32:51.470880",
        "meta_mean_motion": 13.47799978,
        "meta_eccentricity": 0.04278843,
        "meta_inclination": 73.9685,
        "meta_ra_of_asc_node": 34.0698,
        "meta_arg_of_pericenter": 5.5967,
        "meta_mean_anomaly": 354.9698,
        "meta_ephemeris_type": 0,
        "meta_classification_type": "U",
        "meta_norad_cat_id": 36439,
        "meta_element_set_no": 999,
        "meta_rev_at_epoch": 58635,
        "meta_bstar": 0.0013173309,
        "meta_mean_motion_dot": 1.398e-05,
        "meta_mean_motion_ddot": 0,
        "tle_line1": "1 36439U 93036BAN 25348.39781795  .00001398  00000+0  13173-2 0  9994",
        "tle_line2": "2 36439  73.9685  34.0698 0427884   5.5967 354.9698 13.47799978586355"
      },
      "geometry": {
        "type": "Point",
        "coordinates": [
          -113.25082113543834,
          -63.912693274769104
        ]
      }
    },
    {
      "type": "Feature",
      "properties": {
        "norad_id": 36441,
        "name": "COSMOS 2251 DEB",
        "group": "cosmos-2251-debris",
        "lat": 27.634804060077673,
        "lon": -9.234690702823425,
        "alt_km": 497.00318913409956,
        "timestamp": "2025-12-16T10:53:45.868386+00:00",
        "meta_object_name": "COSMOS 2251 DEB",
        "meta_object_id": "1993-036BAQ",
        "meta_epoch": "2025-12-15T06:05:15.368640",
        "meta_mean_motion": 15.06805702,
        "meta_eccentricity": 0.01084779,
        "meta_inclination": 73.8354,
        "meta_ra_of_asc_node": 344.5255,
        "meta_arg_of_pericenter": 83.0253,
        "meta_mean_anomaly": 278.326,
        "meta_ephemeris_type": 0,
        "meta_classification_type": "U",
        "meta_norad_cat_id": 36441,
        "meta_element_set_no": 999,
        "meta_rev_at_epoch": 87003,
        "meta_bstar": 0.00030687329,
        "meta_mean_motion_dot": 5.184e-05,
        "meta_mean_motion_ddot": 0,
        "tle_line1": "1 36441U 93036BAQ 25349.25365010  .00005184  00000+0  30687-3 0  9998",
        "tle_line2": "2 36441  73.8354 344.5255 0108477  83.0253 278.3260 15.06805702870036"
      },
      "geometry": {
        "type": "Point",
        "coordinates": [
          -9.234690702823425,
          27.634804060077673
        ]
      }
    }
  ]
}